{
  "type": "FeatureCollection",
  "features": [
    {
      "type": "Feature",
      "properties": {
        "norad_id": 66577,
        "name": "STARLINK-35815",
        "group": "last-30-days",
        "lat": -41.25963377202562,
        "lon": 51.03007432147936,
        "alt_km": 417.34265687372863,
        "timestamp": "2025-12-12T16:50:31.911032+00:00",
        "meta_object_name": "STARLINK-35815",
        "meta_object_id": "2025-268W",
        "meta_epoch": "2025-12-12T06:00:00.999648",
        "meta_mean_motion": 15.50567826,
        "meta_eccentricity": 0.00015862,
        "meta_inclination": 43.0001,
        "meta_ra_of_asc_node": 123.9663,
        "meta_arg_of_pericenter": 268.9495,
        "meta_mean_anomaly": 11.07,
        "meta_ephemeris_type": 0,
        "meta_classification_type": "U",
        "meta_norad_cat_id": 66577,
        "meta_element_set_no": 999,
        "meta_rev_at_epoch": 459,
        "meta_bstar": -0.00019021599,
        "meta_mean_motion_dot": -0.0001148,
        "meta_mean_motion_ddot": 0,
        "tle_line1": "1 66577U 25268W   25346.25001157 -.00011480  00000+0 -19022-3 0  9997",
        "tle_line2": "2 66577  43.0001 123.9663 0001586 268.9495  11.0700 15.50567826  4596"
      },
      "geometry": {
        "type": "Point",
        "coordinates": [
          51.03007432147936,
          -41.25963377202562
        ]
      }
    },
    {
      "type": "Feature",
      "properties": {
        "norad_id": 66578,
        "name": "STARLINK-35743",
        "group": "last-30-days",
        "lat": -40.79431838291029,
        "lon": 53.48025186407454,
        "alt_km": 417.45227513739064,
        "timestamp": "2025-12-12T16:50:31.911042+00:00",
        "meta_object_name": "STARLINK-35743",
        "meta_object_id": "2025-268X",
        "meta_epoch": "2025-12-12T06:00:00.999648",
        "meta_mean_motion": 15.50524791,
        "meta_eccentricity": 0.00013229,
        "meta_inclination": 43,
        "meta_ra_of_asc_node": 123.9611,
        "meta_arg_of_pericenter": 263.567,
        "meta_mean_anomaly": 18.3756,
        "meta_ephemeris_type": 0,
        "meta_classification_type": "U",
        "meta_norad_cat_id": 66578,
        "meta_element_set_no": 999,
        "meta_rev_at_epoch": 459,
        "meta_bstar": 0.001169512,
        "meta_mean_motion_dot": 0.00068739,
        "meta_mean_motion_ddot": 0,
        "tle_line1": "1 66578U 25268X   25346.25001157  .00068739  00000+0  11695-2 0  9992",
        "tle_line2": "2 66578  43.0000 123.9611 0001322 263.5670  18.3756 15.50524791  4598"
      },
      "geometry": {
        "type": "Point",
        "coordinates": [
          53.48025186407454,
          -40.79431838291029
        ]
      }
    },
    {
      "type": "Feature",
      "properties": {
        "norad_id": 66579,
        "name": "STARLINK-35868",
        "group": "last-30-days",
        "lat": -40.276054705204665,
        "lon": 55.902905129185335,
        "alt_km": 417.3188000233022,
        "timestamp": "2025-12-12T16:50:31.911054+00:00",
        "meta_object_name": "STARLINK-35868",
        "meta_object_id": "2025-268Y",
        "meta_epoch": "2025-12-12T06:00:00.999648",
        "meta_mean_motion": 15.50523136,
        "meta_eccentricity": 0.00015327,
        "meta_inclination": 43.0001,
        "meta_ra_of_asc_node": 123.9562,
        "meta_arg_of_pericenter": 263.6662,
        "meta_mean_anomaly": 20.1988,
        "meta_ephemeris_type": 0,
        "meta_classification_type": "U",
        "meta_norad_cat_id": 66579,
        "meta_element_set_no": 999,
        "meta_rev_at_epoch": 459,
        "meta_bstar": 0.0011271898,
        "meta_mean_motion_dot": 0.00066214,
        "meta_mean_motion_ddot": 0,
        "tle_line1": "1 66579U 25268Y   25346.25001157  .00066214  00000+0  11272-2 0  9990",
        "tle_line2": "2 66579  43.0001 123.9562 0001532 263.6662  20.1988 15.50523136  4590"
      },
      "geometry": {
        "type": "Point",
        "coordinates": [
          55.902905129185335,
          -40.276054705204665
        ]
      }
    },
    {
      "type": "Feature",
      "properties": {
        "norad_id": 66580,
        "name": "STARLINK-35872",
        "group": "last-30-days",
        "lat": -39.70944165645541,
        "lon": 58.281128858232485,
        "alt_km": 417.4138846663873,
        "timestamp": "2025-12-12T16:50:31.911064+00:00",
        "meta_object_name": "STARLINK-35872",
        "meta_object_id": "2025-268Z",
        "meta_epoch": "2025-12-12T06:00:00.999648",
        "meta_mean_motion": 15.50524003,
        "meta_eccentricity": 0.00013471,
        "meta_inclination": 43.0002,
        "meta_ra_of_asc_node": 123.9519,
        "meta_arg_of_pericenter": 264.3658,
        "meta_mean_anomaly": 21.412,
        "meta_ephemeris_type": 0,
        "meta_classification_type": "U",
        "meta_norad_cat_id": 66580,
        "meta_element_set_no": 999,
        "meta_rev_at_epoch": 459,
        "meta_bstar": 0.0011346422,
        "meta_mean_motion_dot": 0.0006666,
        "meta_mean_motion_ddot": 0,
        "tle_line1": "1 66580U 25268Z   25346.25001157  .00066660  00000+0  11346-2 0  9999",
        "tle_line2": "2 66580  43.0002 123.9519 0001347 264.3658  21.4120 15.50524003  4598"
      },
      "geometry": {
        "type": "Point",
        "coordinates": [
          58.281128858232485,
          -39.70944165645541
        ]
      }
    },
    {
      "type": "Feature",
      "properties": {
        "norad_id": 66581,
        "name": "STARLINK-35744",
        "group": "last-30-days",
        "lat": -39.09402472354667,
        "lon": 60.620632200890896,
        "alt_km": 417.1245198053166,
        "timestamp": "2025-12-12T16:50:31.911074+00:00",
        "meta_object_name": "STARLINK-35744",
        "meta_object_id": "2025-268AA",
        "meta_epoch": "2025-12-12T06:00:00.999648",
        "meta_mean_motion": 15.50523301,
        "meta_eccentricity": 0.00015603,
        "meta_inclination": 43.0001,
        "meta_ra_of_asc_node": 123.9467,
        "meta_arg_of_pericenter": 286.3497,
        "meta_mean_anomaly": 1.3366,
        "meta_ephemeris_type": 0,
        "meta_classification_type": "U",
        "meta_norad_cat_id": 66581,
        "meta_element_set_no": 999,
        "meta_rev_at_epoch": 454,
        "meta_bstar": 0.0014566356,
        "meta_mean_motion_dot": 0.00085884,
        "meta_mean_motion_ddot": 0,
        "tle_line1": "1 66581U 25268AA  25346.25001157  .00085884  00000+0  14566-2 0  9996",
        "tle_line2": "2 66581  43.0001 123.9467 0001560 286.3497   1.3366 15.50523301  4546"
      },
      "geometry": {
        "type": "Point",
        "coordinates": [
          60.620632200890896,
          -39.09402472354667
        ]
      }
    },
    {
      "type": "Feature",
      "properties": {
        "norad_id": 66582,
        "name": "STARLINK-35746",
        "group": "last-30-days",
        "lat": -38.43513557425487,
        "lon": 62.90958968271555,
        "alt_km": 417.3664170191105,
        "timestamp": "2025-12-12T16:50:31.911086+00:00",
        "meta_object_name": "STARLINK-35746",
        "meta_object_id": "2025-268AB",
        "meta_epoch": "2025-12-12T06:00:00.999648",
        "meta_mean_motion": 15.50529472,
        "meta_eccentricity": 0.00013903,
        "meta_inclination": 43,
        "meta_ra_of_asc_node": 123.9418,
        "meta_arg_of_pericenter": 266.5229,
        "meta_mean_anomaly": 23.0827,
        "meta_ephemeris_type": 0,
        "meta_classification_type": "U",
        "meta_norad_cat_id": 66582,
        "meta_element_set_no": 999,
        "meta_rev_at_epoch": 459,
        "meta_bstar": 0.00084758754,
        "meta_mean_motion_dot": 0.0004961,
        "meta_mean_motion_ddot": 0,
        "tle_line1": "1 66582U 25268AB  25346.25001157  .00049610  00000+0  84759-3 0  9996",
        "tle_line2": "2 66582  43.0000 123.9418 0001390 266.5229  23.0827 15.50529472  4599"
      },
      "geometry": {
        "type": "Point",
        "coordinates": [
          62.90958968271555,
          -38.43513557425487
        ]
      }
    },
    {
      "type": "Feature",
      "properties": {
        "norad_id": 66583,
        "name": "STARLINK-35941",
        "group": "last-30-days",
        "lat": -37.72490175057286,
        "lon": 65.17968276813289,
        "alt_km": 417.3164175406291,
        "timestamp": "2025-12-12T16:50:31.911097+00:00",
        "meta_object_name": "STARLINK-35941",
        "meta_object_id": "2025-268AC",
        "meta_epoch": "2025-12-12T06:00:00.999648",
        "meta_mean_motion": 15.50553196,
        "meta_eccentricity": 0.00014083,
        "meta_inclination": 43.0002,
        "meta_ra_of_asc_node": 123.9371,
        "meta_arg_of_pericenter": 269.7135,
        "meta_mean_anomaly": 21.8037,
        "meta_ephemeris_type": 0,
        "meta_classification_type": "U",
        "meta_norad_cat_id": 66583,
        "meta_element_set_no": 999,
        "meta_rev_at_epoch": 459,
        "meta_bstar": 0.00036018907,
        "meta_mean_motion_dot": 0.00020826,
        "meta_mean_motion_ddot": 0,
        "tle_line1": "1 66583U 25268AC  25346.25001157  .00020826  00000+0  36019-3 0  9991",
        "tle_line2": "2 66583  43.0002 123.9371 0001408 269.7135  21.8037 15.50553196  4590"
      },
      "geometry": {
        "type": "Point",
        "coordinates": [
          65.17968276813289,
          -37.72490175057286
        ]
      }
    }
  ]
}